{
    "links": {
        "self": "http://www.neowsapp.com/rest/v1/neo/3892268?api_key=iIulBulltgU6a56xZRHN4H3l9WmuAYTsLGpBGhQ2"
    },
    "id": "3892268",
    "neo_reference_id": "3892268",
    "name": "(2019 VL)",
    "designation": "2019 VL",
    "nasa_jpl_url": "http://ssd.jpl.nasa.gov/sbdb.cgi?sstr=3892268",
    "absolute_magnitude_h": 24.6,
    "estimated_diameter": {
        "kilometers": {
            "estimated_diameter_min": 0.0319561887,
            "estimated_diameter_max": 0.0714562102
        },
        "meters": {
            "estimated_diameter_min": 31.9561886721,
            "estimated_diameter_max": 71.4562101727
        },
        "miles": {
            "estimated_diameter_min": 0.0198566489,
            "estimated_diameter_max": 0.0444008168
        },
        "feet": {
            "estimated_diameter_min": 104.8431420431,
            "estimated_diameter_max": 234.436392583
        }
    },
    "is_potentially_hazardous_asteroid": false,
    "close_approach_data": [
        {
            "close_approach_date": "2019-11-06",
            "close_approach_date_full": "2019-Nov-06 03:05",
            "epoch_date_close_approach": 1573009500000,
            "relative_velocity": {
                "kilometers_per_second": "16.0883359853",
                "kilometers_per_hour": "57918.0095469518",
                "miles_per_hour": "35987.9987654379"
            },
            "miss_distance": {
                "astronomical": "0.0811409795",
                "lunar": "31.5638410255",
                "kilometers": "12138517.702913665",
                "miles": "7542525.149051977"
            },
            "orbiting_body": "Earth"
        },
        {
            "close_approach_date": "2020-04-15",
            "close_approach_date_full": "2020-Apr-15 14:32",
            "epoch_date_close_approach": 1586961120000,
            "relative_velocity": {
                "kilometers_per_second": "16.3936700126",
                "kilometers_per_hour": "59017.2120455231",
                "miles_per_hour": "36671.0004512863"
            },
            "miss_distance": {
                "astronomical": "0.338042717",
                "lunar": "131.498616913",
                "kilometers": "50570470.43221279",
                "miles": "31423033.221164902"
            },
            "orbiting_body": "Earth"
        },
        {
            "close_approach_date": "2195-11-03",
            "close_approach_date_full": "2195-Nov-03 10:11",
            "epoch_date_close_approach": 7126827060000,
            "relative_velocity": {
                "kilometers_per_second": "17.587634169",
                "kilometers_per_hour": "63315.483008571",
                "miles_per_hour": "39341.7788727424"
            },
            "miss_distance": {
                "astronomical": "0.1435021024",
                "lunar": "55.8223178336",
                "kilometers": "21467608.859561888",
                "miles": "13339353.5912865344"
            },
            "orbiting_body": "Earth"
        },
        {
            "close_approach_date": "2196-04-21",
            "close_approach_date_full": "2196-Apr-21 04:54",
            "epoch_date_close_approach": 7141496040000,
            "relative_velocity": {
                "kilometers_per_second": "15.5030882322",
                "kilometers_per_hour": "55811.1176357602",
                "miles_per_hour": "34678.8580665089"
            },
            "miss_distance": {
                "astronomical": "0.2969588365",
                "lunar": "115.5169873985",
                "kilometers": "44424409.418078255",
                "miles": "27604047.995679719"
            },
            "orbiting_body": "Earth"
        },
        {
            "close_approach_date": "2199-11-11",
            "close_approach_date_full": "2199-Nov-11 18:12",
            "epoch_date_close_approach": 7253777520000,
            "relative_velocity": {
                "kilometers_per_second": "16.9606715705",
                "kilometers_per_hour": "61058.4176538212",
                "miles_per_hour": "37939.3262360646"
            },
            "miss_distance": {
                "astronomical": "0.4148684177",
                "lunar": "161.3838144853",
                "kilometers": "62063431.618190299",
                "miles": "38564428.1512481662"
            },
            "orbiting_body": "Earth"
        }
    ],
    "orbital_data": {
        "orbit_id": "1",
        "orbit_determination_date": "2019-11-03 07:12:07",
        "first_observation_date": "2019-11-01",
        "last_observation_date": "2019-11-03",
        "data_arc_in_days": 2,
        "observations_used": 25,
        "orbit_uncertainty": "9",
        "minimum_orbit_intersection": ".067849",
        "jupiter_tisserand_invariant": "5.054",
        "epoch_osculation": "2458789.5",
        "eccentricity": ".1969033051410627",
        "semi_major_axis": "1.229814938674779",
        "inclination": "30.36660927252923",
        "ascending_node_longitude": "40.52413560947252",
        "orbital_period": "498.1476353392495",
        "perihelion_distance": ".987660312537862",
        "perihelion_argument": "55.0490045100534",
        "aphelion_distance": "1.471969564811697",
        "perihelion_time": "2458845.941818649801",
        "mean_anomaly": "319.2107775437082",
        "mean_motion": ".7226773238717316",
        "equinox": "J2000",
        "orbit_class": {
            "orbit_class_type": "APO",
            "orbit_class_description": "Near-Earth asteroid orbits which cross the Earth’s orbit similar to that of 1862 Apollo",
            "orbit_class_range": "a (semi-major axis) > 1.0 AU; q (perihelion) < 1.017 AU"
        }
    },
    "is_sentry_object": false
}